0 BREEZE-M DEB
1 38591U 08011AN  13261.12064292 -.00003578  00000-0 -31781-1 0  1791
2 38591 048.6546 199.3655 6655109 236.9402 321.1423 02.88658536 23122
0 BREEZE-M DEB
1 38591U 08011AN  13272.28231419 -.00003912  00000-0 -31781-1 0  1801
2 38591 048.6283 195.5792 6661974 240.3321 039.3610 02.88611383 23457
